{"type": "FeatureCollection", "features": [ {"type": "Feature", "properties": {"norad_id": 34117, "name": "COSMOS 2251 DEB", "group": "cosmos-2251-debris", "lat": -70.54722144720863, "lon": -167.2855716604866, "alt_km": 791.672150543408, "timestamp": "2025-12-26T09:30:54.033671+00:00", "meta": {"OBJECT_NAME": "COSMOS 2251 DEB", "OBJECT_ID": "1993-036KN", "EPOCH": "2025-12-25T22:18:47.337120", "MEAN_MOTION": 14.40065603, "ECCENTRICITY": 0.0055158, "INCLINATION": 74.0405, "RA_OF_ASC_NODE": 319.458, "ARG_OF_PERICENTER": 32.1667, "MEAN_ANOMALY": 328.2833, "EPHEMERIS_TYPE": 0, "CLASSIFICATION_TYPE": "U", "NORAD_CAT_ID": 34117, "ELEMENT_SET_NO": 999, "REV_AT_EPOCH": 88313, "BSTAR": 0.00075194, "MEAN_MOTION_DOT": 2.389e-05, "MEAN_MOTION_DDOT": 0}, "tle": {"line1": "1 34117U 93036KN  25359.92971455  .00002389  00000+0  75194-3 0  9993", "line2": "2 34117  74.0405 319.4580 0055158  32.1667 328.2833 14.40065603883138"}}, "geometry": {"type": "Point", "coordinates": [-167.2855716604866, -70.54722144720863]}}, {"type": "Feature", "properties": {"norad_id": 34118, "name": "COSMOS 2251 DEB", "group": "cosmos-2251-debris", "lat": 64.81061461284654, "lon": 3.921198626358753, "alt_km": 557.3064282947016, "timestamp": "2025-12-26T09:30:54.033682+00:00", "meta": {"OBJECT_NAME": "COSMOS 2251 DEB", "OBJECT_ID": "1993-036KP", "EPOCH": "2025-12-26T01:39:33.695136", "MEAN_MOTION": 14.94366588, "ECCENTRICITY": 0.0060172, "INCLINATION": 73.9512, "RA_OF_ASC_NODE": 222.3206, "ARG_OF_PERICENTER": 49.0891, "MEAN_ANOMALY": 99.7937, "EPHEMERIS_TYPE": 0, "CLASSIFICATION_TYPE": "U", "NORAD_CAT_ID": 34118, "ELEMENT_SET_NO": 999, "REV_AT_EPOCH": 89375, "BSTAR": 0.0013757, "MEAN_MOTION_DOT": 0.0001534, "MEAN_MOTION_DDOT": 0}, "tle": {"line1": "1 34118U 93036KP  25360.06913999  .00015340  00000+0  13757-2 0  9997", "line2": "2 34118  73.9512 222.3206 0060172  49.0891  99.7937 14.94366588893750"}}, "geometry": {"type": "Point", "coordinates": [3.921198626358753, 64.81061461284654]}}, {"type": "Feature", "properties": {"norad_id": 34120, "name": "COSMOS 2251 DEB", "group": "cosmos-2251-debris", "lat": 29.510212739451816, "lon": 3.212737757267322, "alt_km": 983.7108652480165, "timestamp": "2025-12-26T09:30:54.033692+00:00", "meta": {"OBJECT_NAME": "COSMOS 2251 DEB", "OBJECT_ID": "1993-036KR", "EPOCH": "2025-12-25T21:19:40.909152", "MEAN_MOTION": 13.98697738, "ECCENTRICITY": 0.0182532, "INCLINATION": 73.9901, "RA_OF_ASC_NODE": 193.4446, "ARG_OF_PERICENTER": 18.2234, "MEAN_ANOMALY": 93.3876, "EPHEMERIS_TYPE": 0, "CLASSIFICATION_TYPE": "U", "NORAD_CAT_ID": 34120, "ELEMENT_SET_NO": 999, "REV_AT_EPOCH": 86164, "BSTAR": 0.00029319, "MEAN_MOTION_DOT": 4.62e-06, "MEAN_MOTION_DDOT": 0}, "tle": {"line1": "1 34120U 93036KR  25359.88866793  .00000462  00000+0  29319-3 0  9998", "line2": "2 34120  73.9901 193.4446 0182532  18.2234  93.3876 13.98697738861645"}}, "geometry": {"type": "Point", "coordinates": [3.212737757267322, 29.510212739451816]}}, {"type": "Feature", "properties": {"norad_id": 34121, "name": "COSMOS 2251 DEB", "group": "cosmos-2251-debris", "lat": 30.282829264963297, "lon": 83.41679250518379, "alt_km": 991.6234555811525, "timestamp": "2025-12-26T09:30:54.033702+00:00", "meta": {"OBJECT_NAME": "COSMOS 2251 DEB", "OBJECT_ID": "1993-036KS", "EPOCH": "2025-12-26T04:19:10.722144", "MEAN_MOTION": 13.9197943, "ECCENTRICITY": 0.02411, "INCLINATION": 73.9924, "RA_OF_ASC_NODE": 74.1374, "ARG_OF_PERICENTER": 276.786, "MEAN_ANOMALY": 108.074, "EPHEMERIS_TYPE": 0, "CLASSIFICATION_TYPE": "U", "NORAD_CAT_ID": 34121, "ELEMENT_SET_NO": 999, "REV_AT_EPOCH": 85312, "BSTAR": 0.0012527, "MEAN_MOTION_DOT": 2.002e-05, "MEAN_MOTION_DDOT": 0}, "tle": {"line1": "1 34121U 93036KS  25360.17998521  .00002002  00000+0  12527-2 0  9992", "line2": "2 34121  73.9924  74.1374 0241100 276.7860 108.0740 13.91979430853122"}}, "geometry": {"type": "Point", "coordinates": [83.41679250518379, 30.282829264963297]}}, {"type": "Feature", "properties": {"norad_id": 34122, "name": "COSMOS 2251 DEB", "group": "cosmos-2251-debris", "lat": -73.82443707121456, "lon": 11.655969911286837, "alt_km": 665.1932770458416, "timestamp": "2025-12-26T09:30:54.033713+00:00", "meta": {"OBJECT_NAME": "COSMOS 2251 DEB", "OBJECT_ID": "1993-036KT", "EPOCH": "2025-12-25T16:34:08.283360", "MEAN_MOTION": 14.65194212, "ECCENTRICITY": 0.00850759, "INCLINATION": 74.0361, "RA_OF_ASC_NODE": 93.7165, "ARG_OF_PERICENTER": 346.9472, "MEAN_ANOMALY": 163.709, "EPHEMERIS_TYPE": 0, "CLASSIFICATION_TYPE": "U", "NORAD_CAT_ID": 34122, "ELEMENT_SET_NO": 999, "REV_AT_EPOCH": 88874, "BSTAR": 0.00109519, "MEAN_MOTION_DOT": 6.189e-05, "MEAN_MOTION_DDOT": 0}, "tle": {"line1": "1 34122U 93036KT  25359.69037365  .00006189  00000+0  10952-2 0  9998", "line2": "2 34122  74.0361  93.7165 0085075 346.9472 163.7090 14.65194212888742"}}, "geometry": {"type": "Point", "coordinates": [11.655969911286837, -73.82443707121456]}}, {"type": "Feature", "properties": {"norad_id": 34127, "name": "COSMOS 2251 DEB", "group": "cosmos-2251-debris", "lat": -20.580188868026802, "lon": 13.069285618197748, "alt_km": 834.24235873202, "timestamp": "2025-12-26T09:30:54.033723+00:00", "meta": {"OBJECT_NAME": "COSMOS 2251 DEB", "OBJECT_ID": "1993-036KY", "EPOCH": "2025-12-26T03:11:06.016128", "MEAN_MOTION": 14.31660585, "ECCENTRICITY": 0.0114493, "INCLINATION": 74.1802, "RA_OF_ASC_NODE": 19.657, "ARG_OF_PERICENTER": 216.8999, "MEAN_ANOMALY": 201.8533, "EPHEMERIS_TYPE": 0, "CLASSIFICATION_TYPE": "U", "NORAD_CAT_ID": 34127, "ELEMENT_SET_NO": 999, "REV_AT_EPOCH": 86963, "BSTAR": 0.0014462, "MEAN_MOTION_DOT": 4.119e-05, "MEAN_MOTION_DDOT": 0}, "tle": {"line1": "1 34127U 93036KY  25360.13270852  .00004119  00000+0  14462-2 0  9995", "line2": "2 34127  74.1802  19.6570 0114493 216.8999 201.8533 14.31660585869638"}}, "geometry": {"type": "Point", "coordinates": [13.069285618197748, -20.580188868026802]}}, {"type": "Feature", "properties": {"norad_id": 34128, "name": "COSMOS 2251 DEB", "group": "cosmos-2251-debris", "lat": 12.358967665224947, "lon": -87.55179575497918, "alt_km": 544.7081800870046, "timestamp": "2025-12-26T09:30:54.033733+00:00", "meta": {"OBJECT_NAME": "COSMOS 2251 DEB", "OBJECT_ID": "1993-036KZ", "EPOCH": "2025-12-25T20:58:06.002112", "MEAN_MOTION": 15.01656939, "ECCENTRICITY": 0.00259758, "INCLINATION": 73.9985, "RA_OF_ASC_NODE": 269.9103, "ARG_OF_PERICENTER": 19.1021, "MEAN_ANOMALY": 48.9677, "EPHEMERIS_TYPE": 0, "CLASSIFICATION_TYPE": "U", "NORAD_CAT_ID": 34128, "ELEMENT_SET_NO": 999, "REV_AT_EPOCH": 89364, "BSTAR": 0.0013820706, "MEAN_MOTION_DOT": 0.00018089, "MEAN_MOTION_DDOT": 0}, "tle": {"line1": "1 34128U 93036KZ  25359.87368058  .00018089  00000+0  13821-2 0  9990", "line2": "2 34128  73.9985 269.9103 0025975  19.1021  48.9677 15.01656939893649"}}, "geometry": {"type": "Point", "coordinates": [-87.55179575497918, 12.358967665224947]}}, {"type": "Feature", "properties": {"norad_id": 34129, "name": "COSMOS 2251 DEB", "group": "cosmos-2251-debris", "lat": 60.60459493525501, "lon": 102.25941057991845, "alt_km": 633.5001332135653, "timestamp": "2025-12-26T09:30:54.033743+00:00", "meta": {"OBJECT_NAME": "COSMOS 2251 DEB", "OBJECT_ID": "1993-036LA", "EPOCH": "2025-12-25T23:14:18.299040", "MEAN_MOTION": 14.75979627, "ECCENTRICITY": 0.0033565, "INCLINATION": 74.0358, "RA_OF_ASC_NODE": 313.6363, "ARG_OF_PERICENTER": 31.2725, "MEAN_ANOMALY": 329.0436, "EPHEMERIS_TYPE": 0, "CLASSIFICATION_TYPE": "U", "NORAD_CAT_ID": 34129, "ELEMENT_SET_NO": 999, "REV_AT_EPOCH": 61493, "BSTAR": 0.0015138, "MEAN_MOTION_DOT": 0.00010498, "MEAN_MOTION_DDOT": 0}, "tle": {"line1": "1 34129U 93036LA  25359.96826735  .00010498  00000+0  15138-2 0  9991", "line2": "2 34129  74.0358 313.6363 0033565  31.2725 329.0436 14.75979627614932"}}, "geometry": {"type": "Point", "coordinates": [102.25941057991845, 60.60459493525501]}}, {"type": "Feature", "properties": {"norad_id": 34136, "name": "COSMOS 2251 DEB", "group": "cosmos-2251-debris", "lat": 57.69606581148509, "lon": 168.7453023094038, "alt_km": 565.8100569294911, "timestamp": "2025-12-26T09:30:54.033753+00:00", "meta": {"OBJECT_NAME": "COSMOS 2251 DEB", "OBJECT_ID": "1993-036LH", "EPOCH": "2025-12-26T01:01:34.800096", "MEAN_MOTION": 14.80159737, "ECCENTRICITY": 0.0084924, "INCLINATION": 74.0199, "RA_OF_ASC_NODE": 16.3936, "ARG_OF_PERICENTER": 135.693, "MEAN_ANOMALY": 259.0769, "EPHEMERIS_TYPE": 0, "CLASSIFICATION_TYPE": "U", "NORAD_CAT_ID": 34136, "ELEMENT_SET_NO": 999, "REV_AT_EPOCH": 90207, "BSTAR": 0.00035497, "MEAN_MOTION_DOT": 2.831e-05, "MEAN_MOTION_DDOT": 0}, "tle": {"line1": "1 34136U 93036LH  25360.04276389  .00002831  00000+0  35497-3 0  9997", "line2": "2 34136  74.0199  16.3936 0084924 135.6930 259.0769 14.80159737902072"}}, "geometry": {"type": "Point", "coordinates": [168.7453023094038, 57.69606581148509]}}, {"type": "Feature", "properties": {"norad_id": 34139, "name": "COSMOS 2251 DEB", "group": "cosmos-2251-debris", "lat": -64.16172230373132, "lon": 84.28558159262403, "alt_km": 682.1823876705876, "timestamp": "2025-12-26T09:30:54.033763+00:00", "meta": {"OBJECT_NAME": "COSMOS 2251 DEB", "OBJECT_ID": "1993-036LL", "EPOCH": "2025-12-26T02:31:49.353312", "MEAN_MOTION": 14.59229708, "ECCENTRICITY": 0.0042389, "INCLINATION": 74.0296, "RA_OF_ASC_NODE": 228.5847, "ARG_OF_PERICENTER": 297.5153, "MEAN_ANOMALY": 224.0195, "EPHEMERIS_TYPE": 0, "CLASSIFICATION_TYPE": "U", "NORAD_CAT_ID": 34139, "ELEMENT_SET_NO": 999, "REV_AT_EPOCH": 88344, "BSTAR": 0.0012579, "MEAN_MOTION_DOT": 5.985e-05, "MEAN_MOTION_DDOT": 0}, "tle": {"line1": "1 34139U 93036LL  25360.10543233  .00005985  00000+0  12579-2 0  9990", "line2": "2 34139  74.0296 228.5847 0042389 297.5153 224.0195 14.59229708883441"}}, "geometry": {"type": "Point", "coordinates": [84.28558159262403, -64.16172230373132]}}]}